{
  "type": "FeatureCollection",
  "features": [
    {
      "type": "Feature",
      "properties": {
        "norad_id": 66947,
        "name": "STARLINK-36089",
        "group": "last-30-days",
        "lat": -8.427307277262528,
        "lon": 169.9192155974355,
        "alt_km": 398.63556688147946,
        "timestamp": "2025-12-26T03:50:10.809317+00:00",
        "meta_object_name": "STARLINK-36089",
        "meta_object_id": "2025-286Y",
        "meta_epoch": "2025-12-25T20:00:01.999008",
        "meta_mean_motion": 15.58341934,
        "meta_eccentricity": 0.0001428,
        "meta_inclination": 53.1591,
        "meta_ra_of_asc_node": 345.1229,
        "meta_arg_of_pericenter": 88.201,
        "meta_mean_anomaly": 70.4042,
        "meta_ephemeris_type": 0,
        "meta_classification_type": "U",
        "meta_norad_cat_id": 66947,
        "meta_element_set_no": 999,
        "meta_rev_at_epoch": 409,
        "meta_bstar": -0.028874,
        "meta_mean_motion_dot": -0.01963494,
        "meta_mean_motion_ddot": 0,
        "tle_line1": "1 66947U 25286Y   25359.83335647 -.01963494  00000+0 -28874-1 0  9995",
        "tle_line2": "2 66947  53.1591 345.1229 0001428  88.2010  70.4042 15.58341934  4091"
      },
      "geometry": {
        "type": "Point",
        "coordinates": [
          169.9192155974355,
          -8.427307277262528
        ]
      }
    },
    {
      "type": "Feature",
      "properties": {
        "norad_id": 66948,
        "name": "STARLINK-36116",
        "group": "last-30-days",
        "lat": -6.901387959872303,
        "lon": 168.7527838830949,
        "alt_km": 398.4688296114773,
        "timestamp": "2025-12-26T03:50:10.809340+00:00",
        "meta_object_name": "STARLINK-36116",
        "meta_object_id": "2025-286Z",
        "meta_epoch": "2025-12-25T20:00:01.999008",
        "meta_mean_motion": 15.58343725,
        "meta_eccentricity": 0.0001381,
        "meta_inclination": 53.159,
        "meta_ra_of_asc_node": 345.1273,
        "meta_arg_of_pericenter": 84.9018,
        "meta_mean_anomaly": 71.7857,
        "meta_ephemeris_type": 0,
        "meta_classification_type": "U",
        "meta_norad_cat_id": 66948,
        "meta_element_set_no": 999,
        "meta_rev_at_epoch": 409,
        "meta_bstar": -0.02891,
        "meta_mean_motion_dot": -0.01965735,
        "meta_mean_motion_ddot": 0,
        "tle_line1": "1 66948U 25286Z   25359.83335647 -.01965735  00000+0 -28910-1 0  9997",
        "tle_line2": "2 66948  53.1590 345.1273 0001381  84.9018  71.7857 15.58343725  4097"
      },
      "geometry": {
        "type": "Point",
        "coordinates": [
          168.7527838830949,
          -6.901387959872303
        ]
      }
    },
    {
      "type": "Feature",
      "properties": {
        "norad_id": 66949,
        "name": "STARLINK-36096",
        "group": "last-30-days",
        "lat": -9.951904916411435,
        "lon": 171.09823906769742,
        "alt_km": 398.9048242010331,
        "timestamp": "2025-12-26T03:50:10.809351+00:00",
        "meta_object_name": "STARLINK-36096",
        "meta_object_id": "2025-286AA",
        "meta_epoch": "2025-12-25T20:00:01.999008",
        "meta_mean_motion": 15.58353706,
        "meta_eccentricity": 0.0001527,
        "meta_inclination": 53.159,
        "meta_ra_of_asc_node": 345.1201,
        "meta_arg_of_pericenter": 85.7374,
        "meta_mean_anomaly": 74.7829,
        "meta_ephemeris_type": 0,
        "meta_classification_type": "U",
        "meta_norad_cat_id": 66949,
        "meta_element_set_no": 999,
        "meta_rev_at_epoch": 409,
        "meta_bstar": -0.029199,
        "meta_mean_motion_dot": -0.01983759,
        "meta_mean_motion_ddot": 0,
        "tle_line1": "1 66949U 25286AA  25359.83335647 -.01983759  00000+0 -29199-1 0  9994",
        "tle_line2": "2 66949  53.1590 345.1201 0001527  85.7374  74.7829 15.58353706  4097"
      },
      "geometry": {
        "type": "Point",
        "coordinates": [
          171.09823906769742,
          -9.951904916411435
        ]
      }
    },
    {
      "type": "Feature",
      "properties": {
        "norad_id": 66950,
        "name": "STARLINK-36111",
        "group": "last-30-days",
        "lat": -12.979479341798676,
        "lon": 173.48118445810317,
        "alt_km": 399.1991960331434,
        "timestamp": "2025-12-26T03:50:10.809364+00:00",
        "meta_object_name": "STARLINK-36111",
        "meta_object_id": "2025-286AB",
        "meta_epoch": "2025-12-25T20:00:01.999008",
        "meta_mean_motion": 15.58345414,
        "meta_eccentricity": 0.0001407,
        "meta_inclination": 53.1591,
        "meta_ra_of_asc_node": 345.1111,
        "meta_arg_of_pericenter": 89.6353,
        "meta_mean_anomaly": 74.7184,
        "meta_ephemeris_type": 0,
        "meta_classification_type": "U",
        "meta_norad_cat_id": 66950,
        "meta_element_set_no": 999,
        "meta_rev_at_epoch": 409,
        "meta_bstar": -0.028937,
        "meta_mean_motion_dot": -0.01967477,
        "meta_mean_motion_ddot": 0,
        "tle_line1": "1 66950U 25286AB  25359.83335647 -.01967477  00000+0 -28937-1 0  9994",
        "tle_line2": "2 66950  53.1591 345.1111 0001407  89.6353  74.7184 15.58345414  4098"
      },
      "geometry": {
        "type": "Point",
        "coordinates": [
          173.48118445810317,
          -12.979479341798676
        ]
      }
    },
    {
      "type": "Feature",
      "properties": {
        "norad_id": 66951,
        "name": "STARLINK-35999",
        "group": "last-30-days",
        "lat": -14.48650416233237,
        "lon": 174.69553296071143,
        "alt_km": 399.3763589860728,
        "timestamp": "2025-12-26T03:50:10.809374+00:00",
        "meta_object_name": "STARLINK-35999",
        "meta_object_id": "2025-286AC",
        "meta_epoch": "2025-12-25T20:00:01.999008",
        "meta_mean_motion": 15.58342404,
        "meta_eccentricity": 0.0001363,
        "meta_inclination": 53.159,
        "meta_ra_of_asc_node": 345.1073,
        "meta_arg_of_pericenter": 89.6505,
        "meta_mean_anomaly": 76.6229,
        "meta_ephemeris_type": 0,
        "meta_classification_type": "U",
        "meta_norad_cat_id": 66951,
        "meta_element_set_no": 999,
        "meta_rev_at_epoch": 409,
        "meta_bstar": -0.028895,
        "meta_mean_motion_dot": -0.01964769,
        "meta_mean_motion_ddot": 0,
        "tle_line1": "1 66951U 25286AC  25359.83335647 -.01964769  00000+0 -28895-1 0  9999",
        "tle_line2": "2 66951  53.1590 345.1073 0001363  89.6505  76.6229 15.58342404  4092"
      },
      "geometry": {
        "type": "Point",
        "coordinates": [
          174.69553296071143,
          -14.48650416233237
        ]
      }
    },
    {
      "type": "Feature",
      "properties": {
        "norad_id": 66952,
        "name": "STARLINK-36122",
        "group": "last-30-days",
        "lat": -11.46754346372744,
        "lon": 172.28260355412894,
        "alt_km": 399.08289104918913,
        "timestamp": "2025-12-26T03:50:10.809387+00:00",
        "meta_object_name": "STARLINK-36122",
        "meta_object_id": "2025-286AD",
        "meta_epoch": "2025-12-25T20:00:01.999008",
        "meta_mean_motion": 15.58346363,
        "meta_eccentricity": 0.0001475,
        "meta_inclination": 53.1592,
        "meta_ra_of_asc_node": 345.1154,
        "meta_arg_of_pericenter": 85.7351,
        "meta_mean_anomaly": 76.7024,
        "meta_ephemeris_type": 0,
        "meta_classification_type": "U",
        "meta_norad_cat_id": 66952,
        "meta_element_set_no": 999,
        "meta_rev_at_epoch": 409,
        "meta_bstar": -0.028984,
        "meta_mean_motion_dot": -0.01970403,
        "meta_mean_motion_ddot": 0,
        "tle_line1": "1 66952U 25286AD  25359.83335647 -.01970403  00000+0 -28984-1 0  9991",
        "tle_line2": "2 66952  53.1592 345.1154 0001475  85.7351  76.7024 15.58346363  4097"
      },
      "geometry": {
        "type": "Point",
        "coordinates": [
          172.28260355412894,
          -11.46754346372744
        ]
      }
    },
    {
      "type": "Feature",
      "properties": {
        "norad_id": 66953,
        "name": "HULIANWANG DIGUI-114",
        "group": "last-30-days",
        "lat": -37.350797341475705,
        "lon": -21.4025417399015,
        "alt_km": 1026.234677607128,
        "timestamp": "2025-12-26T03:50:10.809397+00:00",
        "meta_object_name": "HULIANWANG DIGUI-114",
        "meta_object_id": "2025-287A",
        "meta_epoch": "2025-12-20T09:09:14.655168",
        "meta_mean_motion": 13.66161866,
        "meta_eccentricity": 0.00096738,
        "meta_inclination": 86.496,
        "meta_ra_of_asc_node": 343.3747,
        "meta_arg_of_pericenter": 185.0352,
        "meta_mean_anomaly": 175.071,
        "meta_ephemeris_type": 0,
        "meta_classification_type": "U",
        "meta_norad_cat_id": 66953,
        "meta_element_set_no": 999,
        "meta_rev_at_epoch": 157,
        "meta_bstar": 3.033618e-06,
        "meta_mean_motion_dot": 1.9e-07,
        "meta_mean_motion_ddot": 0,
        "tle_line1": "1 66953U 25287A   25354.38141962  .00000019  00000+0  30336-5 0  9995",
        "tle_line2": "2 66953  86.4960 343.3747 0009673 185.0352 175.0710 13.66161866  1572"
      },
      "geometry": {
        "type": "Point",
        "coordinates": [
          -21.4025417399015,
          -37.350797341475705
        ]
      }
    }
  ]
}